{"type":"FeatureCollection","name":"France CPAM noms compacts","features":[{"type":"Feature","properties":{"organisme":"CCSS LOZERE","label":"LOZERE","feature_role":"label"},"geometry":{"type":"Point","coordinates":[3.521534,44.538086]}},{"type":"Feature","properties":{"organisme":"CPAM AIN","label":"AIN","feature_role":"label"},"geometry":{"type":"Point","coordinates":[5.284086,46.068246]}},{"type":"Feature","properties":{"organisme":"CPAM AISNE","label":"AISNE","feature_role":"label"},"geometry":{"type":"Point","coordinates":[3.592239,49.46004]}},{"type":"Feature","properties":{"organisme":"CPAM ALLIER","label":"ALLIER","feature_role":"label"},"geometry":{"type":"Point","coordinates":[3.163841,46.367728]}},{"type":"Feature","properties":{"organisme":"CPAM ALPES-DE-HAUTE-PROVENCE","label":"ALPES-DE-HAUTE-PROVENCE","feature_role":"label"},"geometry":{"type":"Point","coordinates":[6.188115,44.161133]}},{"type":"Feature","properties":{"organisme":"CPAM ALPES-MARITIMES","label":"ALPES-MARITIMES","feature_role":"label"},"geometry":{"type":"Point","coordinates":[7.240823,43.92077]}},{"type":"Feature","properties":{"organisme":"CPAM ARDECHE","label":"ARDECHE","feature_role":"label"},"geometry":{"type":"Point","coordinates":[4.396541,44.814682]}},{"type":"Feature","properties":{"organisme":"CPAM ARDENNES","label":"ARDENNES","feature_role":"label"},"geometry":{"type":"Point","coordinates":[4.667413,49.694866]}},{"type":"Feature","properties":{"organisme":"CPAM ARIEGE","label":"ARIEGE","feature_role":"label"},"geometry":{"type":"Point","coordinates":[1.407179,42.944719]}},{"type":"Feature","properties":{"organisme":"CPAM ARTOIS","label":"ARTOIS","feature_role":"label"},"geometry":{"type":"Point","coordinates":[2.7583378131862273,50.34358785761111]}},{"type":"Feature","properties":{"organisme":"CPAM AUBE","label":"AUBE","feature_role":"label"},"geometry":{"type":"Point","coordinates":[4.189757,48.320622]}},{"type":"Feature","properties":{"organisme":"CPAM AUDE","label":"AUDE","feature_role":"label"},"geometry":{"type":"Point","coordinates":[2.513033,43.055705]}},{"type":"Feature","properties":{"organisme":"CPAM AVEYRON","label":"AVEYRON","feature_role":"label"},"geometry":{"type":"Point","coordinates":[2.509729,44.314445]}},{"type":"Feature","properties":{"organisme":"CPAM BAS-RHIN","label":"BAS-RHIN","feature_role":"label"},"geometry":{"type":"Point","coordinates":[7.532554,48.597227]}},{"type":"Feature","properties":{"organisme":"CPAM BAYONNE","label":"BAYONNE","feature_role":"label"},"geometry":{"type":"Point","coordinates":[-1.1952788069522482,43.275662368577045]}},{"type":"Feature","properties":{"organisme":"CPAM BOUCHES-DU-RHONE","label":"BOUCHES-DU-RHONE","feature_role":"label"},"geometry":{"type":"Point","coordinates":[5.375893,43.540376]}},{"type":"Feature","properties":{"organisme":"CPAM CALVADOS","label":"CALVADOS","feature_role":"label"},"geometry":{"type":"Point","coordinates":[-0.240344,49.094026]}},{"type":"Feature","properties":{"organisme":"CPAM CANTAL","label":"CANTAL","feature_role":"label"},"geometry":{"type":"Point","coordinates":[2.701855,45.050023]}},{"type":"Feature","properties":{"organisme":"CPAM CHARENTE","label":"CHARENTE","feature_role":"label"},"geometry":{"type":"Point","coordinates":[0.097771,45.670247]}},{"type":"Feature","properties":{"organisme":"CPAM CHARENTE MARITIME","label":"CHARENTE MARITIME","feature_role":"label"},"geometry":{"type":"Point","coordinates":[-0.824348,45.731353]}},{"type":"Feature","properties":{"organisme":"CPAM CHER","label":"CHER","feature_role":"label"},"geometry":{"type":"Point","coordinates":[2.575696,47.02272]}},{"type":"Feature","properties":{"organisme":"CPAM CORREZE","label":"CORREZE","feature_role":"label"},"geometry":{"type":"Point","coordinates":[1.817781,45.341082]}},{"type":"Feature","properties":{"organisme":"CPAM CORSE-DU-SUD","label":"CORSE-DU-SUD","feature_role":"label"},"geometry":{"type":"Point","coordinates":[9.011527,41.870825]}},{"type":"Feature","properties":{"organisme":"CPAM COTE D'OPALE","label":"COTE D'OPALE","feature_role":"label"},"geometry":{"type":"Point","coordinates":[2.0219700765332123,50.59409124417176]}},{"type":"Feature","properties":{"organisme":"CPAM COTE-D'OR","label":"COTE-D'OR","feature_role":"label"},"geometry":{"type":"Point","coordinates":[4.756336,47.467058]}},{"type":"Feature","properties":{"organisme":"CPAM COTES-D'ARMOR","label":"COTES-D'ARMOR","feature_role":"label"},"geometry":{"type":"Point","coordinates":[-2.751868,48.449415]}},{"type":"Feature","properties":{"organisme":"CPAM CREUSE","label":"CREUSE","feature_role":"label"},"geometry":{"type":"Point","coordinates":[2.048153,46.063594]}},{"type":"Feature","properties":{"organisme":"CPAM DEUX SEVRES","label":"DEUX SEVRES","feature_role":"label"},"geometry":{"type":"Point","coordinates":[-0.300656,46.540518]}},{"type":"Feature","properties":{"organisme":"CPAM DORDOGNE","label":"DORDOGNE","feature_role":"label"},"geometry":{"type":"Point","coordinates":[0.632703,45.144834]}},{"type":"Feature","properties":{"organisme":"CPAM DOUBS","label":"DOUBS","feature_role":"label"},"geometry":{"type":"Point","coordinates":[6.240833,47.062362]}},{"type":"Feature","properties":{"organisme":"CPAM DROME","label":"DROME","feature_role":"label"},"geometry":{"type":"Point","coordinates":[5.20194,44.729166]}},{"type":"Feature","properties":{"organisme":"CPAM DU TERRITOIRE DE BELFORT","label":"DU TERRITOIRE DE BELFORT","feature_role":"label"},"geometry":{"type":"Point","coordinates":[6.896246,47.622329]}},{"type":"Feature","properties":{"organisme":"CPAM ESSONNE","label":"Essonne","feature_role":"label"},"geometry":{"type":"Point","coordinates":[2.228002,48.525668]}},{"type":"Feature","properties":{"organisme":"CPAM EURE","label":"EURE","feature_role":"label"},"geometry":{"type":"Point","coordinates":[0.993243,49.075748]}},{"type":"Feature","properties":{"organisme":"CPAM EURE ET LOIR","label":"EURE ET LOIR","feature_role":"label"},"geometry":{"type":"Point","coordinates":[1.3989,48.447599]}},{"type":"Feature","properties":{"organisme":"CPAM FINISTERE","label":"FINISTERE","feature_role":"label"},"geometry":{"type":"Point","coordinates":[-4.043196,48.245818]}},{"type":"Feature","properties":{"organisme":"CPAM FLANDRES","label":"FLANDRES","feature_role":"label"},"geometry":{"type":"Point","coordinates":[2.3998510839076745,50.85475265752363]}},{"type":"Feature","properties":{"organisme":"CPAM GARD","label":"GARD","feature_role":"label"},"geometry":{"type":"Point","coordinates":[4.296246,43.959883]}},{"type":"Feature","properties":{"organisme":"CPAM GERS","label":"GERS","feature_role":"label"},"geometry":{"type":"Point","coordinates":[0.409431,43.696855]}},{"type":"Feature","properties":{"organisme":"CPAM GIRONDE","label":"GIRONDE","feature_role":"label"},"geometry":{"type":"Point","coordinates":[-0.607214,44.879246]}},{"type":"Feature","properties":{"organisme":"CPAM HAINAUT","label":"HAINAUT","feature_role":"label"},"geometry":{"type":"Point","coordinates":[3.684249982943606,50.25408455302336]}},{"type":"Feature","properties":{"organisme":"CPAM HAUT-RHIN","label":"HAUT-RHIN","feature_role":"label"},"geometry":{"type":"Point","coordinates":[7.231856,47.872426]}},{"type":"Feature","properties":{"organisme":"CPAM HAUTE-CORSE","label":"HAUTE-CORSE","feature_role":"label"},"geometry":{"type":"Point","coordinates":[9.098215,42.418853]}},{"type":"Feature","properties":{"organisme":"CPAM HAUTE-GARONNE","label":"HAUTE-GARONNE","feature_role":"label"},"geometry":{"type":"Point","coordinates":[0.971274,43.306092]}},{"type":"Feature","properties":{"organisme":"CPAM HAUTE-LOIRE","label":"HAUTE-LOIRE","feature_role":"label"},"geometry":{"type":"Point","coordinates":[3.832647,45.084721]}},{"type":"Feature","properties":{"organisme":"CPAM HAUTE-MARNE","label":"HAUTE-MARNE","feature_role":"label"},"geometry":{"type":"Point","coordinates":[5.255417,48.135624]}},{"type":"Feature","properties":{"organisme":"CPAM HAUTE-SAONE","label":"HAUTE-SAONE","feature_role":"label"},"geometry":{"type":"Point","coordinates":[6.095505,47.638702]}},{"type":"Feature","properties":{"organisme":"CPAM HAUTE-SAVOIE","label":"HAUTE-SAVOIE","feature_role":"label"},"geometry":{"type":"Point","coordinates":[6.346178,46.046626]}},{"type":"Feature","properties":{"organisme":"CPAM HAUTE-VIENNE","label":"HAUTE-VIENNE","feature_role":"label"},"geometry":{"type":"Point","coordinates":[1.180104,45.918737]}},{"type":"Feature","properties":{"organisme":"CPAM HAUTES-ALPES","label":"HAUTES-ALPES","feature_role":"label"},"geometry":{"type":"Point","coordinates":[6.374741,44.659713]}},{"type":"Feature","properties":{"organisme":"CPAM HAUTES-PYRENEES","label":"HAUTES-PYRENEES","feature_role":"label"},"geometry":{"type":"Point","coordinates":[0.154898,43.140085]}},{"type":"Feature","properties":{"organisme":"CPAM HAUTS-DE-SEINE","label":"Hauts-de-Seine","feature_role":"label"},"geometry":{"type":"Point","coordinates":[2.200101,48.838289]}},{"type":"Feature","properties":{"organisme":"CPAM HERAULT","label":"HERAULT","feature_role":"label"},"geometry":{"type":"Point","coordinates":[3.386716,43.593076]}},{"type":"Feature","properties":{"organisme":"CPAM ILLE et VILAINE","label":"ILLE et VILAINE","feature_role":"label"},"geometry":{"type":"Point","coordinates":[-1.649945,48.169398]}},{"type":"Feature","properties":{"organisme":"CPAM INDRE","label":"INDRE","feature_role":"label"},"geometry":{"type":"Point","coordinates":[1.534956,46.811473]}},{"type":"Feature","properties":{"organisme":"CPAM INDRE-ET-LOIRE","label":"INDRE-ET-LOIRE","feature_role":"label"},"geometry":{"type":"Point","coordinates":[0.685362,47.229947]}},{"type":"Feature","properties":{"organisme":"CPAM ISERE","label":"ISERE","feature_role":"label"},"geometry":{"type":"Point","coordinates":[5.636142,45.292693]}},{"type":"Feature","properties":{"organisme":"CPAM JURA","label":"JURA","feature_role":"label"},"geometry":{"type":"Point","coordinates":[5.779273,46.782996]}},{"type":"Feature","properties":{"organisme":"CPAM LANDES","label":"LANDES","feature_role":"label"},"geometry":{"type":"Point","coordinates":[-0.643566,44.012634]}},{"type":"Feature","properties":{"organisme":"CPAM LE HAVRE","label":"LE HAVRE","feature_role":"label"},"geometry":{"type":"Point","coordinates":[0.3782087053429294,49.63048903079345]}},{"type":"Feature","properties":{"organisme":"CPAM LILLE DOUAI","label":"LILLE DOUAI","feature_role":"label"},"geometry":{"type":"Point","coordinates":[3.0711206355981426,50.54643928121633]}},{"type":"Feature","properties":{"organisme":"CPAM LOIR-ET-CHER","label":"LOIR-ET-CHER","feature_role":"label"},"geometry":{"type":"Point","coordinates":[1.300042,47.659509]}},{"type":"Feature","properties":{"organisme":"CPAM LOIRE","label":"LOIRE","feature_role":"label"},"geometry":{"type":"Point","coordinates":[4.048701,45.751864]}},{"type":"Feature","properties":{"organisme":"CPAM LOIRE-ATLANTIQUE","label":"LOIRE-ATLANTIQUE","feature_role":"label"},"geometry":{"type":"Point","coordinates":[-1.875075,47.346738]}},{"type":"Feature","properties":{"organisme":"CPAM LOIRET","label":"LOIRET","feature_role":"label"},"geometry":{"type":"Point","coordinates":[2.3064,47.915286]}},{"type":"Feature","properties":{"organisme":"CPAM LOT","label":"LOT","feature_role":"label"},"geometry":{"type":"Point","coordinates":[1.667247,44.622459]}},{"type":"Feature","properties":{"organisme":"CPAM LOT ET GARONNE","label":"LOT ET GARONNE","feature_role":"label"},"geometry":{"type":"Point","coordinates":[0.452211,44.367921]}},{"type":"Feature","properties":{"organisme":"CPAM MAINE-ET-LOIRE","label":"MAINE-ET-LOIRE","feature_role":"label"},"geometry":{"type":"Point","coordinates":[-0.391178,47.394713]}},{"type":"Feature","properties":{"organisme":"CPAM MANCHE","label":"MANCHE","feature_role":"label"},"geometry":{"type":"Point","coordinates":[-1.243575,49.098305]}},{"type":"Feature","properties":{"organisme":"CPAM MARNE","label":"MARNE","feature_role":"label"},"geometry":{"type":"Point","coordinates":[4.31548,48.963266]}},{"type":"Feature","properties":{"organisme":"CPAM MAYENNE","label":"MAYENNE","feature_role":"label"},"geometry":{"type":"Point","coordinates":[-0.654545,48.147524]}},{"type":"Feature","properties":{"organisme":"CPAM MEURTHE-ET-MOSELLE","label":"MEURTHE-ET-MOSELLE","feature_role":"label"},"geometry":{"type":"Point","coordinates":[5.986267,48.957426]}},{"type":"Feature","properties":{"organisme":"CPAM MEUSE","label":"MEUSE","feature_role":"label"},"geometry":{"type":"Point","coordinates":[5.429181,49.016718]}},{"type":"Feature","properties":{"organisme":"CPAM MORBIHAN","label":"MORBIHAN","feature_role":"label"},"geometry":{"type":"Point","coordinates":[-2.791848,47.820798]}},{"type":"Feature","properties":{"organisme":"CPAM MOSELLE","label":"MOSELLE","feature_role":"label"},"geometry":{"type":"Point","coordinates":[6.54062,49.018818]}},{"type":"Feature","properties":{"organisme":"CPAM NIEVRE","label":"NIEVRE","feature_role":"label"},"geometry":{"type":"Point","coordinates":[3.543978,47.119718]}},{"type":"Feature","properties":{"organisme":"CPAM OISE","label":"OISE","feature_role":"label"},"geometry":{"type":"Point","coordinates":[2.408052,49.416238]}},{"type":"Feature","properties":{"organisme":"CPAM ORNE","label":"ORNE","feature_role":"label"},"geometry":{"type":"Point","coordinates":[0.043676,48.578549]}},{"type":"Feature","properties":{"organisme":"CPAM PARIS","label":"Paris","feature_role":"label"},"geometry":{"type":"Point","coordinates":[2.3207,48.859339]}},{"type":"Feature","properties":{"organisme":"CPAM PAU","label":"PAU","feature_role":"label"},"geometry":{"type":"Point","coordinates":[-0.49231367272454085,43.19117492609689]}},{"type":"Feature","properties":{"organisme":"CPAM PUY-DE-DOME","label":"PUY-DE-DOME","feature_role":"label"},"geometry":{"type":"Point","coordinates":[3.084869,45.770919]}},{"type":"Feature","properties":{"organisme":"CPAM PYRENEES-ORIENTALES","label":"PYRENEES-ORIENTALES","feature_role":"label"},"geometry":{"type":"Point","coordinates":[2.510503,42.637895]}},{"type":"Feature","properties":{"organisme":"CPAM RHONE","label":"RHONE","feature_role":"label"},"geometry":{"type":"Point","coordinates":[4.611501,45.884747]}},{"type":"Feature","properties":{"organisme":"CPAM ROUBAIX-TOURCOING","label":"ROUBAIX-TOURCOING","feature_role":"label"},"geometry":{"type":"Point","coordinates":[3.066279222479019,50.730674122723386]}},{"type":"Feature","properties":{"organisme":"CPAM ROUEN-ELBEUF-DIEPPE","label":"ROUEN-ELBEUF-DIEPPE","feature_role":"label"},"geometry":{"type":"Point","coordinates":[1.166965312413016,49.66448791144012]}},{"type":"Feature","properties":{"organisme":"CPAM SAONE-ET-LOIRE","label":"SAONE-ET-LOIRE","feature_role":"label"},"geometry":{"type":"Point","coordinates":[4.560345,46.656407]}},{"type":"Feature","properties":{"organisme":"CPAM SARTHE","label":"SARTHE","feature_role":"label"},"geometry":{"type":"Point","coordinates":[0.24998,48.019072]}},{"type":"Feature","properties":{"organisme":"CPAM SAVOIE","label":"SAVOIE","feature_role":"label"},"geometry":{"type":"Point","coordinates":[6.380522,45.494389]}},{"type":"Feature","properties":{"organisme":"CPAM SEINE ST DENIS","label":"Seine-Saint-Denis","feature_role":"label"},"geometry":{"type":"Point","coordinates":[2.453433,48.91088]}},{"type":"Feature","properties":{"organisme":"CPAM SEINE-ET-MARNE","label":"Seine-et-Marne","feature_role":"label"},"geometry":{"type":"Point","coordinates":[3.040385,48.615761]}},{"type":"Feature","properties":{"organisme":"CPAM SOMME","label":"SOMME","feature_role":"label"},"geometry":{"type":"Point","coordinates":[2.371849,49.967291]}},{"type":"Feature","properties":{"organisme":"CPAM TARN","label":"TARN","feature_role":"label"},"geometry":{"type":"Point","coordinates":[2.134244,43.791639]}},{"type":"Feature","properties":{"organisme":"CPAM TARN et GARONNE","label":"TARN et GARONNE","feature_role":"label"},"geometry":{"type":"Point","coordinates":[1.205792,44.081331]}},{"type":"Feature","properties":{"organisme":"CPAM VAL-D'OISE","label":"Val-d'Oise","feature_role":"label"},"geometry":{"type":"Point","coordinates":[2.207812,49.068797]}},{"type":"Feature","properties":{"organisme":"CPAM VAL-DE-MARNE","label":"Val-de-Marne","feature_role":"label"},"geometry":{"type":"Point","coordinates":[2.456681,48.776774]}},{"type":"Feature","properties":{"organisme":"CPAM VAR","label":"VAR","feature_role":"label"},"geometry":{"type":"Point","coordinates":[6.262932,43.417931]}},{"type":"Feature","properties":{"organisme":"CPAM VAUCLUSE","label":"VAUCLUSE","feature_role":"label"},"geometry":{"type":"Point","coordinates":[5.180783,43.99183]}},{"type":"Feature","properties":{"organisme":"CPAM VENDEE","label":"VENDEE","feature_role":"label"},"geometry":{"type":"Point","coordinates":[-1.284312,46.669835]}},{"type":"Feature","properties":{"organisme":"CPAM VIENNE","label":"VIENNE","feature_role":"label"},"geometry":{"type":"Point","coordinates":[0.452664,46.612418]}},{"type":"Feature","properties":{"organisme":"CPAM VOSGES","label":"VOSGES","feature_role":"label"},"geometry":{"type":"Point","coordinates":[6.382443,48.164306]}},{"type":"Feature","properties":{"organisme":"CPAM YONNE","label":"YONNE","feature_role":"label"},"geometry":{"type":"Point","coordinates":[3.64546,47.855675]}},{"type":"Feature","properties":{"organisme":"CPAM YVELINES","label":"Yvelines","feature_role":"label"},"geometry":{"type":"Point","coordinates":[1.890786,48.76133]}},{"type":"Feature","properties":{"organisme":"CGSS GUADELOUPE","label":"GUADELOUPE","feature_role":"label"},"geometry":{"type":"Point","coordinates":[-6.062870064708457,49.7446255]}},{"type":"Feature","properties":{"organisme":"CGSS GUYANE","label":"GUYANE","feature_role":"label"},"geometry":{"type":"Point","coordinates":[-5.991537021927592,48.686042]}},{"type":"Feature","properties":{"organisme":"CGSS REUNION","label":"REUNION","feature_role":"label"},"geometry":{"type":"Point","coordinates":[-6.000577483129981,48.1764395]}},{"type":"Feature","properties":{"organisme":"CGSS MARTINIQUE","label":"MARTINIQUE","feature_role":"label"},"geometry":{"type":"Point","coordinates":[-6.044579915771583,49.1879135]}},{"type":"Feature","properties":{"organisme":"CSS MAYOTTE","label":"MAYOTTE","feature_role":"label"},"geometry":{"type":"Point","coordinates":[-6.0164761536220235,47.669317]}},{"type":"Feature","properties":{"organisme":"","label":"Nord","feature_role":"group_label"},"geometry":{"type":"Point","coordinates":[3.0540545508678387,50.545857999999996]}},{"type":"Feature","properties":{"organisme":"","label":"Pas-de-Calais","feature_role":"group_label"},"geometry":{"type":"Point","coordinates":[2.2282810904690615,50.536032500000005]}},{"type":"Feature","properties":{"organisme":"","label":"Seine-Maritime","feature_role":"group_label"},"geometry":{"type":"Point","coordinates":[0.9380454380708477,49.655867]}},{"type":"Feature","properties":{"organisme":"","label":"Pyrénées-Atlantiques","feature_role":"group_label"},"geometry":{"type":"Point","coordinates":[-0.7150572772114119,43.134159499999996]}}]}
