{"type":"FeatureCollection","name":"Libellés CPAM - points intérieurs","description":"Points intérieurs calculés pour positionner les libellés au sein des zones CPAM.","features":[{"type":"Feature","properties":{"id":"CCSS LOZERE__LABEL","organisme":"CCSS LOZERE","name":"CCSS LOZERE","title":"CCSS LOZERE","label":"CCSS LOZERE","nom_court":"LOZERE","feature_role":"label_point","type_zone":"zone_cpam"},"geometry":{"type":"Point","coordinates":[3.525014,44.510449]}},{"type":"Feature","properties":{"id":"CPAM AIN__LABEL","organisme":"CPAM AIN","name":"CPAM AIN","title":"CPAM AIN","label":"CPAM AIN","nom_court":"AIN","feature_role":"label_point","type_zone":"zone_cpam"},"geometry":{"type":"Point","coordinates":[5.267169,46.061174]}},{"type":"Feature","properties":{"id":"CPAM AISNE__LABEL","organisme":"CPAM AISNE","name":"CPAM AISNE","title":"CPAM AISNE","label":"CPAM AISNE","nom_court":"AISNE","feature_role":"label_point","type_zone":"zone_cpam"},"geometry":{"type":"Point","coordinates":[3.551039,49.453058]}},{"type":"Feature","properties":{"id":"CPAM ALLIER__LABEL","organisme":"CPAM ALLIER","name":"CPAM ALLIER","title":"CPAM ALLIER","label":"CPAM ALLIER","nom_court":"ALLIER","feature_role":"label_point","type_zone":"zone_cpam"},"geometry":{"type":"Point","coordinates":[3.135327,46.350966]}},{"type":"Feature","properties":{"id":"CPAM ALPES-DE-HAUTE-PROVENCE__LABEL","organisme":"CPAM ALPES-DE-HAUTE-PROVENCE","name":"CPAM ALPES-DE-HAUTE-PROVENCE","title":"CPAM ALPES-DE-HAUTE-PROVENCE","label":"CPAM ALPES-DE-HAUTE-PROVENCE","nom_court":"ALPES-DE-HAUTE-PROVENCE","feature_role":"label_point","type_zone":"zone_cpam"},"geometry":{"type":"Point","coordinates":[6.144118,44.161511]}},{"type":"Feature","properties":{"id":"CPAM ALPES-MARITIMES__LABEL","organisme":"CPAM ALPES-MARITIMES","name":"CPAM ALPES-MARITIMES","title":"CPAM ALPES-MARITIMES","label":"CPAM ALPES-MARITIMES","nom_court":"ALPES-MARITIMES","feature_role":"label_point","type_zone":"zone_cpam"},"geometry":{"type":"Point","coordinates":[7.217462,43.912083]}},{"type":"Feature","properties":{"id":"CPAM ARDECHE__LABEL","organisme":"CPAM ARDECHE","name":"CPAM ARDECHE","title":"CPAM ARDECHE","label":"CPAM ARDECHE","nom_court":"ARDECHE","feature_role":"label_point","type_zone":"zone_cpam"},"geometry":{"type":"Point","coordinates":[4.39888,44.796146]}},{"type":"Feature","properties":{"id":"CPAM ARDENNES__LABEL","organisme":"CPAM ARDENNES","name":"CPAM ARDENNES","title":"CPAM ARDENNES","label":"CPAM ARDENNES","nom_court":"ARDENNES","feature_role":"label_point","type_zone":"zone_cpam"},"geometry":{"type":"Point","coordinates":[4.64003,49.704808]}},{"type":"Feature","properties":{"id":"CPAM ARIEGE__LABEL","organisme":"CPAM ARIEGE","name":"CPAM ARIEGE","title":"CPAM ARIEGE","label":"CPAM ARIEGE","nom_court":"ARIEGE","feature_role":"label_point","type_zone":"zone_cpam"},"geometry":{"type":"Point","coordinates":[1.401703,42.922929]}},{"type":"Feature","properties":{"id":"CPAM ARTOIS__LABEL","organisme":"CPAM ARTOIS","name":"CPAM ARTOIS","title":"CPAM ARTOIS","label":"CPAM ARTOIS","nom_court":"ARTOIS","feature_role":"label_point","type_zone":"decoupage_cpam_special"},"geometry":{"type":"Point","coordinates":[2.716582,50.357056]}},{"type":"Feature","properties":{"id":"CPAM AUBE__LABEL","organisme":"CPAM AUBE","name":"CPAM AUBE","title":"CPAM AUBE","label":"CPAM AUBE","nom_court":"AUBE","feature_role":"label_point","type_zone":"zone_cpam"},"geometry":{"type":"Point","coordinates":[4.146672,48.316884]}},{"type":"Feature","properties":{"id":"CPAM AUDE__LABEL","organisme":"CPAM AUDE","name":"CPAM AUDE","title":"CPAM AUDE","label":"CPAM AUDE","nom_court":"AUDE","feature_role":"label_point","type_zone":"zone_cpam"},"geometry":{"type":"Point","coordinates":[2.505761,43.028484]}},{"type":"Feature","properties":{"id":"CPAM AVEYRON__LABEL","organisme":"CPAM AVEYRON","name":"CPAM AVEYRON","title":"CPAM AVEYRON","label":"CPAM AVEYRON","nom_court":"AVEYRON","feature_role":"label_point","type_zone":"zone_cpam"},"geometry":{"type":"Point","coordinates":[2.481936,44.283114]}},{"type":"Feature","properties":{"id":"CPAM BAS-RHIN__LABEL","organisme":"CPAM BAS-RHIN","name":"CPAM BAS-RHIN","title":"CPAM BAS-RHIN","label":"CPAM BAS-RHIN","nom_court":"BAS-RHIN","feature_role":"label_point","type_zone":"zone_cpam"},"geometry":{"type":"Point","coordinates":[7.503108,48.61006]}},{"type":"Feature","properties":{"id":"CPAM BAYONNE__LABEL","organisme":"CPAM BAYONNE","name":"CPAM BAYONNE","title":"CPAM BAYONNE","label":"CPAM BAYONNE","nom_court":"BAYONNE","feature_role":"label_point","type_zone":"decoupage_cpam_special"},"geometry":{"type":"Point","coordinates":[-1.133667,43.210689]}},{"type":"Feature","properties":{"id":"CPAM BOUCHES-DU-RHONE__LABEL","organisme":"CPAM BOUCHES-DU-RHONE","name":"CPAM BOUCHES-DU-RHONE","title":"CPAM BOUCHES-DU-RHONE","label":"CPAM BOUCHES-DU-RHONE","nom_court":"BOUCHES-DU-RHONE","feature_role":"label_point","type_zone":"zone_cpam"},"geometry":{"type":"Point","coordinates":[5.374967,43.507408]}},{"type":"Feature","properties":{"id":"CPAM CALVADOS__LABEL","organisme":"CPAM CALVADOS","name":"CPAM CALVADOS","title":"CPAM CALVADOS","label":"CPAM CALVADOS","nom_court":"CALVADOS","feature_role":"label_point","type_zone":"zone_cpam"},"geometry":{"type":"Point","coordinates":[-0.269208,49.079634]}},{"type":"Feature","properties":{"id":"CPAM CANTAL__LABEL","organisme":"CPAM CANTAL","name":"CPAM CANTAL","title":"CPAM CANTAL","label":"CPAM CANTAL","nom_court":"CANTAL","feature_role":"label_point","type_zone":"zone_cpam"},"geometry":{"type":"Point","coordinates":[2.695927,45.013224]}},{"type":"Feature","properties":{"id":"CPAM CHARENTE__LABEL","organisme":"CPAM CHARENTE","name":"CPAM CHARENTE","title":"CPAM CHARENTE","label":"CPAM CHARENTE","nom_court":"CHARENTE","feature_role":"label_point","type_zone":"zone_cpam"},"geometry":{"type":"Point","coordinates":[0.076524,45.639123]}},{"type":"Feature","properties":{"id":"CPAM CHARENTE MARITIME__LABEL","organisme":"CPAM CHARENTE MARITIME","name":"CPAM CHARENTE MARITIME","title":"CPAM CHARENTE MARITIME","label":"CPAM CHARENTE MARITIME","nom_court":"CHARENTE MARITIME","feature_role":"label_point","type_zone":"zone_cpam"},"geometry":{"type":"Point","coordinates":[-0.85318,45.68889]}},{"type":"Feature","properties":{"id":"CPAM CHER__LABEL","organisme":"CPAM CHER","name":"CPAM CHER","title":"CPAM CHER","label":"CPAM CHER","nom_court":"CHER","feature_role":"label_point","type_zone":"zone_cpam"},"geometry":{"type":"Point","coordinates":[2.56164,47.008291]}},{"type":"Feature","properties":{"id":"CPAM CORREZE__LABEL","organisme":"CPAM CORREZE","name":"CPAM CORREZE","title":"CPAM CORREZE","label":"CPAM CORREZE","nom_court":"CORREZE","feature_role":"label_point","type_zone":"zone_cpam"},"geometry":{"type":"Point","coordinates":[1.80003,45.306759]}},{"type":"Feature","properties":{"id":"CPAM CORSE-DU-SUD__LABEL","organisme":"CPAM CORSE-DU-SUD","name":"CPAM CORSE-DU-SUD","title":"CPAM CORSE-DU-SUD","label":"CPAM CORSE-DU-SUD","nom_court":"CORSE-DU-SUD","feature_role":"label_point","type_zone":"zone_cpam"},"geometry":{"type":"Point","coordinates":[8.389712,43.15444]}},{"type":"Feature","properties":{"id":"CPAM COTE D'OPALE__LABEL","organisme":"CPAM COTE D'OPALE","name":"CPAM COTE D'OPALE","title":"CPAM COTE D'OPALE","label":"CPAM COTE D'OPALE","nom_court":"COTE D'OPALE","feature_role":"label_point","type_zone":"decoupage_cpam_special"},"geometry":{"type":"Point","coordinates":[2.006887,50.611742]}},{"type":"Feature","properties":{"id":"CPAM COTE-D'OR__LABEL","organisme":"CPAM COTE-D'OR","name":"CPAM COTE-D'OR","title":"CPAM COTE-D'OR","label":"CPAM COTE-D'OR","nom_court":"COTE-D'OR","feature_role":"label_point","type_zone":"zone_cpam"},"geometry":{"type":"Point","coordinates":[4.733431,47.466463]}},{"type":"Feature","properties":{"id":"CPAM COTES-D'ARMOR__LABEL","organisme":"CPAM COTES-D'ARMOR","name":"CPAM COTES-D'ARMOR","title":"CPAM COTES-D'ARMOR","label":"CPAM COTES-D'ARMOR","nom_court":"COTES-D'ARMOR","feature_role":"label_point","type_zone":"zone_cpam"},"geometry":{"type":"Point","coordinates":[-2.784958,48.408009]}},{"type":"Feature","properties":{"id":"CPAM CREUSE__LABEL","organisme":"CPAM CREUSE","name":"CPAM CREUSE","title":"CPAM CREUSE","label":"CPAM CREUSE","nom_court":"CREUSE","feature_role":"label_point","type_zone":"zone_cpam"},"geometry":{"type":"Point","coordinates":[2.053779,46.036863]}},{"type":"Feature","properties":{"id":"CPAM DEUX SEVRES__LABEL","organisme":"CPAM DEUX SEVRES","name":"CPAM DEUX SEVRES","title":"CPAM DEUX SEVRES","label":"CPAM DEUX SEVRES","nom_court":"DEUX SEVRES","feature_role":"label_point","type_zone":"zone_cpam"},"geometry":{"type":"Point","coordinates":[-0.304575,46.505415]}},{"type":"Feature","properties":{"id":"CPAM DORDOGNE__LABEL","organisme":"CPAM DORDOGNE","name":"CPAM DORDOGNE","title":"CPAM DORDOGNE","label":"CPAM DORDOGNE","nom_court":"DORDOGNE","feature_role":"label_point","type_zone":"zone_cpam"},"geometry":{"type":"Point","coordinates":[0.605519,45.105001]}},{"type":"Feature","properties":{"id":"CPAM DOUBS__LABEL","organisme":"CPAM DOUBS","name":"CPAM DOUBS","title":"CPAM DOUBS","label":"CPAM DOUBS","nom_court":"DOUBS","feature_role":"label_point","type_zone":"zone_cpam"},"geometry":{"type":"Point","coordinates":[6.231333,47.068003]}},{"type":"Feature","properties":{"id":"CPAM DROME__LABEL","organisme":"CPAM DROME","name":"CPAM DROME","title":"CPAM DROME","label":"CPAM DROME","nom_court":"DROME","feature_role":"label_point","type_zone":"zone_cpam"},"geometry":{"type":"Point","coordinates":[5.188126,44.731043]}},{"type":"Feature","properties":{"id":"CPAM DU TERRITOIRE DE BELFORT__LABEL","organisme":"CPAM DU TERRITOIRE DE BELFORT","name":"CPAM DU TERRITOIRE DE BELFORT","title":"CPAM DU TERRITOIRE DE BELFORT","label":"CPAM DU TERRITOIRE DE BELFORT","nom_court":"DU TERRITOIRE DE BELFORT","feature_role":"label_point","type_zone":"zone_cpam"},"geometry":{"type":"Point","coordinates":[6.901948,47.65222]}},{"type":"Feature","properties":{"id":"CPAM ESSONNE__LABEL","organisme":"CPAM ESSONNE","name":"CPAM ESSONNE","title":"CPAM ESSONNE","label":"CPAM ESSONNE","nom_court":"ESSONNE","feature_role":"label_point","type_zone":"ile_de_france"},"geometry":{"type":"Point","coordinates":[2.164614,48.552773]}},{"type":"Feature","properties":{"id":"CPAM EURE__LABEL","organisme":"CPAM EURE","name":"CPAM EURE","title":"CPAM EURE","label":"CPAM EURE","nom_court":"EURE","feature_role":"label_point","type_zone":"zone_cpam"},"geometry":{"type":"Point","coordinates":[0.930286,49.063677]}},{"type":"Feature","properties":{"id":"CPAM EURE ET LOIR__LABEL","organisme":"CPAM EURE ET LOIR","name":"CPAM EURE ET LOIR","title":"CPAM EURE ET LOIR","label":"CPAM EURE ET LOIR","nom_court":"EURE ET LOIR","feature_role":"label_point","type_zone":"zone_cpam"},"geometry":{"type":"Point","coordinates":[1.375503,48.424033]}},{"type":"Feature","properties":{"id":"CPAM FINISTERE__LABEL","organisme":"CPAM FINISTERE","name":"CPAM FINISTERE","title":"CPAM FINISTERE","label":"CPAM FINISTERE","nom_court":"FINISTERE","feature_role":"label_point","type_zone":"zone_cpam"},"geometry":{"type":"Point","coordinates":[-4.05646,48.205262]}},{"type":"Feature","properties":{"id":"CPAM FLANDRES__LABEL","organisme":"CPAM FLANDRES","name":"CPAM FLANDRES","title":"CPAM FLANDRES","label":"CPAM FLANDRES","nom_court":"FLANDRES","feature_role":"label_point","type_zone":"decoupage_cpam_special"},"geometry":{"type":"Point","coordinates":[2.455475,50.813577]}},{"type":"Feature","properties":{"id":"CPAM GARD__LABEL","organisme":"CPAM GARD","name":"CPAM GARD","title":"CPAM GARD","label":"CPAM GARD","nom_court":"GARD","feature_role":"label_point","type_zone":"zone_cpam"},"geometry":{"type":"Point","coordinates":[4.270159,43.931128]}},{"type":"Feature","properties":{"id":"CPAM GERS__LABEL","organisme":"CPAM GERS","name":"CPAM GERS","title":"CPAM GERS","label":"CPAM GERS","nom_court":"GERS","feature_role":"label_point","type_zone":"zone_cpam"},"geometry":{"type":"Point","coordinates":[0.405768,43.657063]}},{"type":"Feature","properties":{"id":"CPAM GIRONDE__LABEL","organisme":"CPAM GIRONDE","name":"CPAM GIRONDE","title":"CPAM GIRONDE","label":"CPAM GIRONDE","nom_court":"GIRONDE","feature_role":"label_point","type_zone":"zone_cpam"},"geometry":{"type":"Point","coordinates":[-0.623507,44.843561]}},{"type":"Feature","properties":{"id":"CPAM HAINAUT__LABEL","organisme":"CPAM HAINAUT","name":"CPAM HAINAUT","title":"CPAM HAINAUT","label":"CPAM HAINAUT","nom_court":"HAINAUT","feature_role":"label_point","type_zone":"decoupage_cpam_special"},"geometry":{"type":"Point","coordinates":[3.646047,50.271249]}},{"type":"Feature","properties":{"id":"CPAM HAUT-RHIN__LABEL","organisme":"CPAM HAUT-RHIN","name":"CPAM HAUT-RHIN","title":"CPAM HAUT-RHIN","label":"CPAM HAUT-RHIN","nom_court":"HAUT-RHIN","feature_role":"label_point","type_zone":"zone_cpam"},"geometry":{"type":"Point","coordinates":[7.226028,47.884432]}},{"type":"Feature","properties":{"id":"CPAM HAUTE-CORSE__LABEL","organisme":"CPAM HAUTE-CORSE","name":"CPAM HAUTE-CORSE","title":"CPAM HAUTE-CORSE","label":"CPAM HAUTE-CORSE","nom_court":"HAUTE-CORSE","feature_role":"label_point","type_zone":"zone_cpam"},"geometry":{"type":"Point","coordinates":[8.494254,43.709974]}},{"type":"Feature","properties":{"id":"CPAM HAUTE-GARONNE__LABEL","organisme":"CPAM HAUTE-GARONNE","name":"CPAM HAUTE-GARONNE","title":"CPAM HAUTE-GARONNE","label":"CPAM HAUTE-GARONNE","nom_court":"HAUTE-GARONNE","feature_role":"label_point","type_zone":"zone_cpam"},"geometry":{"type":"Point","coordinates":[0.934097,43.242034]}},{"type":"Feature","properties":{"id":"CPAM HAUTE-LOIRE__LABEL","organisme":"CPAM HAUTE-LOIRE","name":"CPAM HAUTE-LOIRE","title":"CPAM HAUTE-LOIRE","label":"CPAM HAUTE-LOIRE","nom_court":"HAUTE-LOIRE","feature_role":"label_point","type_zone":"zone_cpam"},"geometry":{"type":"Point","coordinates":[3.833857,45.08052]}},{"type":"Feature","properties":{"id":"CPAM HAUTE-MARNE__LABEL","organisme":"CPAM HAUTE-MARNE","name":"CPAM HAUTE-MARNE","title":"CPAM HAUTE-MARNE","label":"CPAM HAUTE-MARNE","nom_court":"HAUTE-MARNE","feature_role":"label_point","type_zone":"zone_cpam"},"geometry":{"type":"Point","coordinates":[5.214952,48.136366]}},{"type":"Feature","properties":{"id":"CPAM HAUTE-SAONE__LABEL","organisme":"CPAM HAUTE-SAONE","name":"CPAM HAUTE-SAONE","title":"CPAM HAUTE-SAONE","label":"CPAM HAUTE-SAONE","nom_court":"HAUTE-SAONE","feature_role":"label_point","type_zone":"zone_cpam"},"geometry":{"type":"Point","coordinates":[6.051599,47.635167]}},{"type":"Feature","properties":{"id":"CPAM HAUTE-SAVOIE__LABEL","organisme":"CPAM HAUTE-SAVOIE","name":"CPAM HAUTE-SAVOIE","title":"CPAM HAUTE-SAVOIE","label":"CPAM HAUTE-SAVOIE","nom_court":"HAUTE-SAVOIE","feature_role":"label_point","type_zone":"zone_cpam"},"geometry":{"type":"Point","coordinates":[6.329371,46.045252]}},{"type":"Feature","properties":{"id":"CPAM HAUTE-VIENNE__LABEL","organisme":"CPAM HAUTE-VIENNE","name":"CPAM HAUTE-VIENNE","title":"CPAM HAUTE-VIENNE","label":"CPAM HAUTE-VIENNE","nom_court":"HAUTE-VIENNE","feature_role":"label_point","type_zone":"zone_cpam"},"geometry":{"type":"Point","coordinates":[1.196643,45.897416]}},{"type":"Feature","properties":{"id":"CPAM HAUTES-ALPES__LABEL","organisme":"CPAM HAUTES-ALPES","name":"CPAM HAUTES-ALPES","title":"CPAM HAUTES-ALPES","label":"CPAM HAUTES-ALPES","nom_court":"HAUTES-ALPES","feature_role":"label_point","type_zone":"zone_cpam"},"geometry":{"type":"Point","coordinates":[6.33306,44.645066]}},{"type":"Feature","properties":{"id":"CPAM HAUTES-PYRENEES__LABEL","organisme":"CPAM HAUTES-PYRENEES","name":"CPAM HAUTES-PYRENEES","title":"CPAM HAUTES-PYRENEES","label":"CPAM HAUTES-PYRENEES","nom_court":"HAUTES-PYRENEES","feature_role":"label_point","type_zone":"zone_cpam"},"geometry":{"type":"Point","coordinates":[0.160483,43.104886]}},{"type":"Feature","properties":{"id":"CPAM HAUTS-DE-SEINE__LABEL","organisme":"CPAM HAUTS-DE-SEINE","name":"CPAM HAUTS-DE-SEINE","title":"CPAM HAUTS-DE-SEINE","label":"CPAM HAUTS-DE-SEINE","nom_court":"HAUTS-DE-SEINE","feature_role":"label_point","type_zone":"ile_de_france"},"geometry":{"type":"Point","coordinates":[2.12989,48.86673]}},{"type":"Feature","properties":{"id":"CPAM HERAULT__LABEL","organisme":"CPAM HERAULT","name":"CPAM HERAULT","title":"CPAM HERAULT","label":"CPAM HERAULT","nom_court":"HERAULT","feature_role":"label_point","type_zone":"zone_cpam"},"geometry":{"type":"Point","coordinates":[3.360666,43.578201]}},{"type":"Feature","properties":{"id":"CPAM ILLE et VILAINE__LABEL","organisme":"CPAM ILLE et VILAINE","name":"CPAM ILLE et VILAINE","title":"CPAM ILLE et VILAINE","label":"CPAM ILLE et VILAINE","nom_court":"ILLE et VILAINE","feature_role":"label_point","type_zone":"zone_cpam"},"geometry":{"type":"Point","coordinates":[-1.652312,48.120052]}},{"type":"Feature","properties":{"id":"CPAM INDRE__LABEL","organisme":"CPAM INDRE","name":"CPAM INDRE","title":"CPAM INDRE","label":"CPAM INDRE","nom_court":"INDRE","feature_role":"label_point","type_zone":"zone_cpam"},"geometry":{"type":"Point","coordinates":[1.527811,46.79506]}},{"type":"Feature","properties":{"id":"CPAM INDRE-ET-LOIRE__LABEL","organisme":"CPAM INDRE-ET-LOIRE","name":"CPAM INDRE-ET-LOIRE","title":"CPAM INDRE-ET-LOIRE","label":"CPAM INDRE-ET-LOIRE","nom_court":"INDRE-ET-LOIRE","feature_role":"label_point","type_zone":"zone_cpam"},"geometry":{"type":"Point","coordinates":[0.680074,47.213636]}},{"type":"Feature","properties":{"id":"CPAM ISERE__LABEL","organisme":"CPAM ISERE","name":"CPAM ISERE","title":"CPAM ISERE","label":"CPAM ISERE","nom_court":"ISERE","feature_role":"label_point","type_zone":"zone_cpam"},"geometry":{"type":"Point","coordinates":[5.609572,45.268405]}},{"type":"Feature","properties":{"id":"CPAM JURA__LABEL","organisme":"CPAM JURA","name":"CPAM JURA","title":"CPAM JURA","label":"CPAM JURA","nom_court":"JURA","feature_role":"label_point","type_zone":"zone_cpam"},"geometry":{"type":"Point","coordinates":[5.786186,46.776849]}},{"type":"Feature","properties":{"id":"CPAM LANDES__LABEL","organisme":"CPAM LANDES","name":"CPAM LANDES","title":"CPAM LANDES","label":"CPAM LANDES","nom_court":"LANDES","feature_role":"label_point","type_zone":"zone_cpam"},"geometry":{"type":"Point","coordinates":[-0.644007,43.977554]}},{"type":"Feature","properties":{"id":"CPAM LE HAVRE__LABEL","organisme":"CPAM LE HAVRE","name":"CPAM LE HAVRE","title":"CPAM LE HAVRE","label":"CPAM LE HAVRE","nom_court":"LE HAVRE","feature_role":"label_point","type_zone":"decoupage_cpam_special"},"geometry":{"type":"Point","coordinates":[0.373987,49.62802]}},{"type":"Feature","properties":{"id":"CPAM LILLE DOUAI__LABEL","organisme":"CPAM LILLE DOUAI","name":"CPAM LILLE DOUAI","title":"CPAM LILLE DOUAI","label":"CPAM LILLE DOUAI","nom_court":"LILLE DOUAI","feature_role":"label_point","type_zone":"decoupage_cpam_special"},"geometry":{"type":"Point","coordinates":[3.066028,50.570579]}},{"type":"Feature","properties":{"id":"CPAM LOIR-ET-CHER__LABEL","organisme":"CPAM LOIR-ET-CHER","name":"CPAM LOIR-ET-CHER","title":"CPAM LOIR-ET-CHER","label":"CPAM LOIR-ET-CHER","nom_court":"LOIR-ET-CHER","feature_role":"label_point","type_zone":"zone_cpam"},"geometry":{"type":"Point","coordinates":[1.278535,47.636498]}},{"type":"Feature","properties":{"id":"CPAM LOIRE__LABEL","organisme":"CPAM LOIRE","name":"CPAM LOIRE","title":"CPAM LOIRE","label":"CPAM LOIRE","nom_court":"LOIRE","feature_role":"label_point","type_zone":"zone_cpam"},"geometry":{"type":"Point","coordinates":[4.017137,45.755212]}},{"type":"Feature","properties":{"id":"CPAM LOIRE-ATLANTIQUE__LABEL","organisme":"CPAM LOIRE-ATLANTIQUE","name":"CPAM LOIRE-ATLANTIQUE","title":"CPAM LOIRE-ATLANTIQUE","label":"CPAM LOIRE-ATLANTIQUE","nom_court":"LOIRE-ATLANTIQUE","feature_role":"label_point","type_zone":"zone_cpam"},"geometry":{"type":"Point","coordinates":[-1.921362,47.309822]}},{"type":"Feature","properties":{"id":"CPAM LOIRET__LABEL","organisme":"CPAM LOIRET","name":"CPAM LOIRET","title":"CPAM LOIRET","label":"CPAM LOIRET","nom_court":"LOIRET","feature_role":"label_point","type_zone":"zone_cpam"},"geometry":{"type":"Point","coordinates":[2.258299,47.888577]}},{"type":"Feature","properties":{"id":"CPAM LOT__LABEL","organisme":"CPAM LOT","name":"CPAM LOT","title":"CPAM LOT","label":"CPAM LOT","nom_court":"LOT","feature_role":"label_point","type_zone":"zone_cpam"},"geometry":{"type":"Point","coordinates":[1.671494,44.598425]}},{"type":"Feature","properties":{"id":"CPAM LOT ET GARONNE__LABEL","organisme":"CPAM LOT ET GARONNE","name":"CPAM LOT ET GARONNE","title":"CPAM LOT ET GARONNE","label":"CPAM LOT ET GARONNE","nom_court":"LOT ET GARONNE","feature_role":"label_point","type_zone":"zone_cpam"},"geometry":{"type":"Point","coordinates":[0.44883,44.329332]}},{"type":"Feature","properties":{"id":"CPAM MAINE-ET-LOIRE__LABEL","organisme":"CPAM MAINE-ET-LOIRE","name":"CPAM MAINE-ET-LOIRE","title":"CPAM MAINE-ET-LOIRE","label":"CPAM MAINE-ET-LOIRE","nom_court":"MAINE-ET-LOIRE","feature_role":"label_point","type_zone":"zone_cpam"},"geometry":{"type":"Point","coordinates":[-0.420145,47.360482]}},{"type":"Feature","properties":{"id":"CPAM MANCHE__LABEL","organisme":"CPAM MANCHE","name":"CPAM MANCHE","title":"CPAM MANCHE","label":"CPAM MANCHE","nom_court":"MANCHE","feature_role":"label_point","type_zone":"zone_cpam"},"geometry":{"type":"Point","coordinates":[-1.253529,49.062934]}},{"type":"Feature","properties":{"id":"CPAM MARNE__LABEL","organisme":"CPAM MARNE","name":"CPAM MARNE","title":"CPAM MARNE","label":"CPAM MARNE","nom_court":"MARNE","feature_role":"label_point","type_zone":"zone_cpam"},"geometry":{"type":"Point","coordinates":[4.268345,48.969881]}},{"type":"Feature","properties":{"id":"CPAM MAYENNE__LABEL","organisme":"CPAM MAYENNE","name":"CPAM MAYENNE","title":"CPAM MAYENNE","label":"CPAM MAYENNE","nom_court":"MAYENNE","feature_role":"label_point","type_zone":"zone_cpam"},"geometry":{"type":"Point","coordinates":[-0.685698,48.134879]}},{"type":"Feature","properties":{"id":"CPAM MEURTHE-ET-MOSELLE__LABEL","organisme":"CPAM MEURTHE-ET-MOSELLE","name":"CPAM MEURTHE-ET-MOSELLE","title":"CPAM MEURTHE-ET-MOSELLE","label":"CPAM MEURTHE-ET-MOSELLE","nom_court":"MEURTHE-ET-MOSELLE","feature_role":"label_point","type_zone":"zone_cpam"},"geometry":{"type":"Point","coordinates":[5.936946,48.960934]}},{"type":"Feature","properties":{"id":"CPAM MEUSE__LABEL","organisme":"CPAM MEUSE","name":"CPAM MEUSE","title":"CPAM MEUSE","label":"CPAM MEUSE","nom_court":"MEUSE","feature_role":"label_point","type_zone":"zone_cpam"},"geometry":{"type":"Point","coordinates":[5.424569,49.015168]}},{"type":"Feature","properties":{"id":"CPAM MORBIHAN__LABEL","organisme":"CPAM MORBIHAN","name":"CPAM MORBIHAN","title":"CPAM MORBIHAN","label":"CPAM MORBIHAN","nom_court":"MORBIHAN","feature_role":"label_point","type_zone":"zone_cpam"},"geometry":{"type":"Point","coordinates":[-2.773178,47.787932]}},{"type":"Feature","properties":{"id":"CPAM MOSELLE__LABEL","organisme":"CPAM MOSELLE","name":"CPAM MOSELLE","title":"CPAM MOSELLE","label":"CPAM MOSELLE","nom_court":"MOSELLE","feature_role":"label_point","type_zone":"zone_cpam"},"geometry":{"type":"Point","coordinates":[6.500279,49.039691]}},{"type":"Feature","properties":{"id":"CPAM NIEVRE__LABEL","organisme":"CPAM NIEVRE","name":"CPAM NIEVRE","title":"CPAM NIEVRE","label":"CPAM NIEVRE","nom_court":"NIEVRE","feature_role":"label_point","type_zone":"zone_cpam"},"geometry":{"type":"Point","coordinates":[3.524096,47.098385]}},{"type":"Feature","properties":{"id":"CPAM OISE__LABEL","organisme":"CPAM OISE","name":"CPAM OISE","title":"CPAM OISE","label":"CPAM OISE","nom_court":"OISE","feature_role":"label_point","type_zone":"zone_cpam"},"geometry":{"type":"Point","coordinates":[2.368441,49.421451]}},{"type":"Feature","properties":{"id":"CPAM ORNE__LABEL","organisme":"CPAM ORNE","name":"CPAM ORNE","title":"CPAM ORNE","label":"CPAM ORNE","nom_court":"ORNE","feature_role":"label_point","type_zone":"zone_cpam"},"geometry":{"type":"Point","coordinates":[0.01881,48.561336]}},{"type":"Feature","properties":{"id":"CPAM PARIS__LABEL","organisme":"CPAM PARIS","name":"CPAM PARIS","title":"CPAM PARIS","label":"CPAM PARIS","nom_court":"PARIS","feature_role":"label_point","type_zone":"ile_de_france"},"geometry":{"type":"Point","coordinates":[2.274351,48.953543]}},{"type":"Feature","properties":{"id":"CPAM PAU__LABEL","organisme":"CPAM PAU","name":"CPAM PAU","title":"CPAM PAU","label":"CPAM PAU","nom_court":"PAU","feature_role":"label_point","type_zone":"decoupage_cpam_special"},"geometry":{"type":"Point","coordinates":[-0.478946,43.153384]}},{"type":"Feature","properties":{"id":"CPAM PUY-DE-DOME__LABEL","organisme":"CPAM PUY-DE-DOME","name":"CPAM PUY-DE-DOME","title":"CPAM PUY-DE-DOME","label":"CPAM PUY-DE-DOME","nom_court":"PUY-DE-DOME","feature_role":"label_point","type_zone":"zone_cpam"},"geometry":{"type":"Point","coordinates":[3.066708,45.747573]}},{"type":"Feature","properties":{"id":"CPAM PYRENEES-ORIENTALES__LABEL","organisme":"CPAM PYRENEES-ORIENTALES","name":"CPAM PYRENEES-ORIENTALES","title":"CPAM PYRENEES-ORIENTALES","label":"CPAM PYRENEES-ORIENTALES","nom_court":"PYRENEES-ORIENTALES","feature_role":"label_point","type_zone":"zone_cpam"},"geometry":{"type":"Point","coordinates":[2.524294,42.600631]}},{"type":"Feature","properties":{"id":"CPAM RHONE__LABEL","organisme":"CPAM RHONE","name":"CPAM RHONE","title":"CPAM RHONE","label":"CPAM RHONE","nom_court":"RHONE","feature_role":"label_point","type_zone":"zone_cpam"},"geometry":{"type":"Point","coordinates":[4.61197,45.862528]}},{"type":"Feature","properties":{"id":"CPAM ROUBAIX-TOURCOING__LABEL","organisme":"CPAM ROUBAIX-TOURCOING","name":"CPAM ROUBAIX-TOURCOING","title":"CPAM ROUBAIX-TOURCOING","label":"CPAM ROUBAIX-TOURCOING","nom_court":"ROUBAIX-TOURCOING","feature_role":"label_point","type_zone":"decoupage_cpam_special"},"geometry":{"type":"Point","coordinates":[3.037135,50.767428]}},{"type":"Feature","properties":{"id":"CPAM ROUEN-ELBEUF-DIEPPE__LABEL","organisme":"CPAM ROUEN-ELBEUF-DIEPPE","name":"CPAM ROUEN-ELBEUF-DIEPPE","title":"CPAM ROUEN-ELBEUF-DIEPPE","label":"CPAM ROUEN-ELBEUF-DIEPPE","nom_court":"ROUEN-ELBEUF-DIEPPE","feature_role":"label_point","type_zone":"decoupage_cpam_special"},"geometry":{"type":"Point","coordinates":[1.139628,49.653841]}},{"type":"Feature","properties":{"id":"CPAM SAONE-ET-LOIRE__LABEL","organisme":"CPAM SAONE-ET-LOIRE","name":"CPAM SAONE-ET-LOIRE","title":"CPAM SAONE-ET-LOIRE","label":"CPAM SAONE-ET-LOIRE","nom_court":"SAONE-ET-LOIRE","feature_role":"label_point","type_zone":"zone_cpam"},"geometry":{"type":"Point","coordinates":[4.544273,46.640222]}},{"type":"Feature","properties":{"id":"CPAM SARTHE__LABEL","organisme":"CPAM SARTHE","name":"CPAM SARTHE","title":"CPAM SARTHE","label":"CPAM SARTHE","nom_court":"SARTHE","feature_role":"label_point","type_zone":"zone_cpam"},"geometry":{"type":"Point","coordinates":[0.229678,48.005277]}},{"type":"Feature","properties":{"id":"CPAM SAVOIE__LABEL","organisme":"CPAM SAVOIE","name":"CPAM SAVOIE","title":"CPAM SAVOIE","label":"CPAM SAVOIE","nom_court":"SAVOIE","feature_role":"label_point","type_zone":"zone_cpam"},"geometry":{"type":"Point","coordinates":[6.346306,45.49467]}},{"type":"Feature","properties":{"id":"CPAM SEINE ST DENIS__LABEL","organisme":"CPAM SEINE ST DENIS","name":"CPAM SEINE ST DENIS","title":"CPAM SEINE ST DENIS","label":"CPAM SEINE ST DENIS","nom_court":"SEINE ST DENIS","feature_role":"label_point","type_zone":"ile_de_france"},"geometry":{"type":"Point","coordinates":[2.37374,48.93058]}},{"type":"Feature","properties":{"id":"CPAM SEINE-ET-MARNE__LABEL","organisme":"CPAM SEINE-ET-MARNE","name":"CPAM SEINE-ET-MARNE","title":"CPAM SEINE-ET-MARNE","label":"CPAM SEINE-ET-MARNE","nom_court":"SEINE-ET-MARNE","feature_role":"label_point","type_zone":"ile_de_france"},"geometry":{"type":"Point","coordinates":[2.954901,48.635855]}},{"type":"Feature","properties":{"id":"CPAM SOMME__LABEL","organisme":"CPAM SOMME","name":"CPAM SOMME","title":"CPAM SOMME","label":"CPAM SOMME","nom_court":"SOMME","feature_role":"label_point","type_zone":"zone_cpam"},"geometry":{"type":"Point","coordinates":[2.337394,49.953453]}},{"type":"Feature","properties":{"id":"CPAM TARN__LABEL","organisme":"CPAM TARN","name":"CPAM TARN","title":"CPAM TARN","label":"CPAM TARN","nom_court":"TARN","feature_role":"label_point","type_zone":"zone_cpam"},"geometry":{"type":"Point","coordinates":[2.125007,43.7688]}},{"type":"Feature","properties":{"id":"CPAM TARN et GARONNE__LABEL","organisme":"CPAM TARN et GARONNE","name":"CPAM TARN et GARONNE","title":"CPAM TARN et GARONNE","label":"CPAM TARN et GARONNE","nom_court":"TARN et GARONNE","feature_role":"label_point","type_zone":"zone_cpam"},"geometry":{"type":"Point","coordinates":[1.195219,44.053911]}},{"type":"Feature","properties":{"id":"CPAM VAL-D'OISE__LABEL","organisme":"CPAM VAL-D'OISE","name":"CPAM VAL-D'OISE","title":"CPAM VAL-D'OISE","label":"CPAM VAL-D'OISE","nom_court":"VAL-D'OISE","feature_role":"label_point","type_zone":"ile_de_france"},"geometry":{"type":"Point","coordinates":[2.130856,49.083846]}},{"type":"Feature","properties":{"id":"CPAM VAL-DE-MARNE__LABEL","organisme":"CPAM VAL-DE-MARNE","name":"CPAM VAL-DE-MARNE","title":"CPAM VAL-DE-MARNE","label":"CPAM VAL-DE-MARNE","nom_court":"VAL-DE-MARNE","feature_role":"label_point","type_zone":"ile_de_france"},"geometry":{"type":"Point","coordinates":[2.383112,48.798971]}},{"type":"Feature","properties":{"id":"CPAM VAR__LABEL","organisme":"CPAM VAR","name":"CPAM VAR","title":"CPAM VAR","label":"CPAM VAR","nom_court":"VAR","feature_role":"label_point","type_zone":"zone_cpam"},"geometry":{"type":"Point","coordinates":[6.263132,43.409629]}},{"type":"Feature","properties":{"id":"CPAM VAUCLUSE__LABEL","organisme":"CPAM VAUCLUSE","name":"CPAM VAUCLUSE","title":"CPAM VAUCLUSE","label":"CPAM VAUCLUSE","nom_court":"VAUCLUSE","feature_role":"label_point","type_zone":"zone_cpam"},"geometry":{"type":"Point","coordinates":[5.172746,43.979794]}},{"type":"Feature","properties":{"id":"CPAM VENDEE__LABEL","organisme":"CPAM VENDEE","name":"CPAM VENDEE","title":"CPAM VENDEE","label":"CPAM VENDEE","nom_court":"VENDEE","feature_role":"label_point","type_zone":"zone_cpam"},"geometry":{"type":"Point","coordinates":[-1.313079,46.64647]}},{"type":"Feature","properties":{"id":"CPAM VIENNE__LABEL","organisme":"CPAM VIENNE","name":"CPAM VIENNE","title":"CPAM VIENNE","label":"CPAM VIENNE","nom_court":"VIENNE","feature_role":"label_point","type_zone":"zone_cpam"},"geometry":{"type":"Point","coordinates":[0.464312,46.580848]}},{"type":"Feature","properties":{"id":"CPAM VOSGES__LABEL","organisme":"CPAM VOSGES","name":"CPAM VOSGES","title":"CPAM VOSGES","label":"CPAM VOSGES","nom_court":"VOSGES","feature_role":"label_point","type_zone":"zone_cpam"},"geometry":{"type":"Point","coordinates":[6.359573,48.167585]}},{"type":"Feature","properties":{"id":"CPAM YONNE__LABEL","organisme":"CPAM YONNE","name":"CPAM YONNE","title":"CPAM YONNE","label":"CPAM YONNE","nom_court":"YONNE","feature_role":"label_point","type_zone":"zone_cpam"},"geometry":{"type":"Point","coordinates":[3.591927,47.853704]}},{"type":"Feature","properties":{"id":"CPAM YVELINES__LABEL","organisme":"CPAM YVELINES","name":"CPAM YVELINES","title":"CPAM YVELINES","label":"CPAM YVELINES","nom_court":"YVELINES","feature_role":"label_point","type_zone":"ile_de_france"},"geometry":{"type":"Point","coordinates":[1.813098,48.778275]}}]}